NORAD_CAT_ID,OBJECT_NAME,OBJECT_TYPE,EPOCH,MEAN_MOTION,ECCENTRICITY,INCLINATION,RA_OF_ASC_NODE,ARG_OF_PERICENTER,MEAN_ANOMALY,BSTAR,MEAN_MOTION_DOT,MEAN_MOTION_DDOT,TLE_LINE0,TLE_LINE1,TLE_LINE2,SEMIMAJOR_AXIS,PERIOD,APOGEE,PERIGEE,DECAYED
50815.0,STARLINK-3234,PAYLOAD,2023-07-16 22:38:47,15.08836378,0.000108,53.2171,189.0133,77.2547,282.8566,2.615e-05,1.28e-06,0.0,0 STARLINK-3234,1 50815U 22001N   23197.94360059  .00000128  00000-0  26150-4 0  9991,2 50815  53.2171 189.0133 0001080  77.2547 282.8566 15.08836378 85735,6917.891,95.438,540.504,539.009,0.0
50815.0,STARLINK-3234,PAYLOAD,2023-07-18 08:01:52,15.08839358,0.0001102,53.2173,182.7686,87.7143,272.3975,9.132e-05,1.166e-05,0.0,0 STARLINK-3234,1 50815U 22001N   23199.33463933  .00001166  00000-0  91320-4 0  9995,2 50815  53.2173 182.7686 0001102  87.7143 272.3975 15.08839358 85945,6917.882,95.438,540.51,538.985,0.0
50815.0,STARLINK-3234,PAYLOAD,2023-07-19 11:03:26,15.0882966,0.0001301,53.2179,177.712,92.008,268.1061,0.00024002,3.533e-05,0.0,0 STARLINK-3234,1 50815U 22001N   23200.46072314  .00003533  00000-0  24002-3 0  9993,2 50815  53.2179 177.7120 0001301  92.0080 268.1061 15.08829660 86112,6917.912,95.438,540.677,538.877,0.0
50815.0,STARLINK-3234,PAYLOAD,2023-07-21 07:34:14,15.08843539,0.0001232,53.2173,169.3875,86.6716,273.4417,6.6838e-05,7.76e-06,0.0,0 STARLINK-3234,1 50815U 22001N   23202.31544228  .00000776  00000-0  66838-4 0  9997,2 50815  53.2173 169.3875 0001232  86.6716 273.4417 15.08843539 86393,6917.87,95.437,540.587,538.882,0.0
50815.0,STARLINK-3234,PAYLOAD,2023-07-24 07:06:36,15.08836809,0.0001586,53.2171,156.0094,92.7204,267.397,-2.7863e-05,-7.31e-06,0.0,0 STARLINK-3234,1 50815U 22001N   23205.29625237 -.00000731  00000-0 -27863-4 0  9995,2 50815  53.2171 156.0094 0001586  92.7204 267.3970 15.08836809 85576,6917.89,95.438,540.852,538.658,0.0
50815.0,STARLINK-3234,PAYLOAD,2023-07-25 06:57:23,15.08837009,0.0001266,53.2158,151.5468,75.2119,284.9013,8.369e-05,1.044e-05,0.0,0 STARLINK-3234,1 50815U 22001N   23206.28985189  .00001044  00000-0  83690-4 0  9996,2 50815  53.2158 151.5468 0001266  75.2119 284.9013 15.08837009 85725,6917.89,95.438,540.63,538.879,0.0
50815.0,STARLINK-3234,PAYLOAD,2023-07-26 03:37:23,15.08846957,0.0001086,53.2145,147.6803,114.2107,245.8998,0.00016011,2.262e-05,0.0,0 STARLINK-3234,1 50815U 22001N   23207.15096375  .00002262  00000-0  16011-3 0  9998,2 50815  53.2145 147.6803 0001086 114.2107 245.8998 15.08846957 85855,6917.859,95.437,540.475,538.973,0.0
50815.0,STARLINK-3234,PAYLOAD,2023-07-27 01:52:47,15.08849002,0.0001207,53.217,143.5194,86.2893,273.8237,9.6206e-05,1.244e-05,0.0,0 STARLINK-3234,1 50815U 22001N   23208.07832420  .00001244  00000-0  96206-4 0  9993,2 50815  53.2170 143.5194 0001207  86.2893 273.8237 15.08849002 87264,6917.853,95.437,540.553,538.883,0.0
50815.0,STARLINK-3234,PAYLOAD,2023-07-27 05:03:33,15.08854885,0.0001208,53.2171,142.9239,87.5217,272.5914,0.00013229,1.819e-05,0.0,0 STARLINK-3234,1 50815U 22001N   23208.21079873  .00001819  00000-0  13229-3 0  9995,2 50815  53.2171 142.9239 0001208  87.5217 272.5914 15.08854885 86018,6917.835,95.437,540.536,538.864,0.0
50815.0,STARLINK-3234,PAYLOAD,2023-07-28 00:08:12,15.08835234,0.0001633,53.2182,139.3576,128.268,231.8459,-0.0001253,-2.281e-05,0.0,0 STARLINK-3234,1 50815U 22001N   23209.00570067 -.00002281  00000-0 -12530-3 0  9994,2 50815  53.2182 139.3576 0001633 128.2680 231.8459 15.08835234 87406,6917.895,95.438,540.89,538.63,0.0
50815.0,STARLINK-3234,PAYLOAD,2023-07-28 12:51:17,15.08837138,0.0001192,53.2179,136.9775,83.3926,276.7202,-7.8724e-07,-3e-06,0.0,0 STARLINK-3234,1 50815U 22001N   23209.53561818 -.00000300  00000-0 -78724-6 0  9996,2 50815  53.2179 136.9775 0001192  83.3926 276.7202 15.08837138 86217,6917.889,95.438,540.579,538.93,0.0
50815.0,STARLINK-3234,PAYLOAD,2023-07-29 01:34:21,15.08854413,0.0001229,53.2173,134.5968,85.3309,274.7824,7.8462e-05,9.62e-06,0.0,0 STARLINK-3234,1 50815U 22001N   23210.06552522  .00000962  00000-0  78462-4 0  9997,2 50815  53.2173 134.5968 0001229  85.3309 274.7824 15.08854413 87569,6917.836,95.437,540.552,538.851,0.0
50815.0,STARLINK-3234,PAYLOAD,2023-07-29 19:03:36,15.08836908,0.0001243,53.2175,131.3261,79.9839,280.1293,0.00016228,2.296e-05,0.0,0 STARLINK-3234,1 50815U 22001N   23210.79417516  .00002296  00000-0  16228-3 0  9993,2 50815  53.2175 131.3261 0001243  79.9839 280.1293 15.08836908 87677,6917.89,95.438,540.615,538.895,0.0
50815.0,STARLINK-3234,PAYLOAD,2023-07-31 01:15:56,15.08845388,0.0001304,53.2181,125.6775,92.8053,267.3088,8.6188e-06,-1.51e-06,0.0,0 STARLINK-3234,1 50815U 22001N   23212.05273340 -.00000151  00000-0  86188-5 0  9992,2 50815  53.2181 125.6775 0001304  92.8053 267.3088 15.08845388 87862,6917.864,95.437,540.631,538.827,0.0
50815.0,STARLINK-3234,PAYLOAD,2023-07-31 10:48:15,15.08840407,0.0001229,53.2172,123.8913,88.7468,271.3665,8.5518e-06,-1.52e-06,0.0,0 STARLINK-3234,1 50815U 22001N   23212.45017645 -.00000152  00000-0  85518-5 0  9997,2 50815  53.2172 123.8913 0001229  88.7468 271.3665 15.08840407 87926,6917.879,95.438,540.594,538.894,0.0
50815.0,STARLINK-3234,PAYLOAD,2023-07-31 23:31:21,15.08830143,0.000126,53.218,121.5137,95.5123,264.6013,-5.1433e-05,-1.106e-05,0.0,0 STARLINK-3234,1 50815U 22001N   23212.98010657 -.00001106  00000-0 -51433-4 0  9990,2 50815  53.2180 121.5137 0001260  95.5123 264.6013 15.08830143 88005,6917.911,95.438,540.647,538.904,0.0
50815.0,STARLINK-3234,PAYLOAD,2023-08-02 00:57:30,15.08871872,0.0001124,53.218,116.7559,98.1719,261.94,-0.00034336,-5.753e-05,0.0,0 STARLINK-3234,1 50815U 22001N   23214.03993223 -.00005753  00000-0 -34336-3 0  9991,2 50815  53.2180 116.7559 0001124  98.1719 261.9400 15.08871872 88169,6917.783,95.436,540.426,538.87,0.0
50815.0,STARLINK-3234,PAYLOAD,2023-08-02 04:08:17,15.08842363,0.0001264,53.218,116.1612,94.7273,265.3863,8.6536e-05,1.09e-05,0.0,0 STARLINK-3234,1 50815U 22001N   23214.17241965  .00001090  00000-0  86536-4 0  9993,2 50815  53.2180 116.1612 0001264  94.7273 265.3863 15.08842363 88181,6917.873,95.437,540.613,538.864,0.0
50815.0,STARLINK-3234,PAYLOAD,2023-08-03 00:48:17,15.08828423,0.0001398,53.2181,112.2947,80.5087,279.6063,0.00042676,6.508e-05,0.0,0 STARLINK-3234,1 50815U 22001N   23215.03354149  .00006508  00000-0  42676-3 0  9993,2 50815  53.2181 112.2947 0001398  80.5087 279.6063 15.08828423 88310,6917.916,95.438,540.748,538.814,0.0
50815.0,STARLINK-3234,PAYLOAD,2023-08-04 02:14:28,15.08843532,0.0001319,53.218,107.5366,78.8957,281.2183,4.2763e-05,3.93e-06,0.0,0 STARLINK-3234,1 50815U 22001N   23216.09338422  .00000393  00000-0  42763-4 0  9990,2 50815  53.2180 107.5366 0001319  78.8957 281.2183 15.08843532 88477,6917.87,95.437,540.647,538.822,0.0
50815.0,STARLINK-3234,PAYLOAD,2023-08-05 06:51:23,15.08856644,0.0001157,53.2175,102.1834,95.8307,264.2817,6.9276e-05,8.15e-06,0.0,0 STARLINK-3234,1 50815U 22001N   23217.28569186  .00000815  00000-0  69276-4 0  9992,2 50815  53.2175 102.1834 0001157  95.8307 264.2817 15.08856644 88653,6917.83,95.437,540.495,538.894,0.0
50815.0,STARLINK-3234,PAYLOAD,2023-08-06 01:56:01,15.08852609,0.0001209,53.2174,98.6138,94.1266,265.9865,0.00016575,2.352e-05,0.0,0 STARLINK-3234,1 50815U 22001N   23218.08057019  .00002352  00000-0  16575-3 0  9999,2 50815  53.2174  98.6138 0001209  94.1266 265.9865 15.08852609 88773,6917.842,95.437,540.543,538.87,0.0
50815.0,STARLINK-3234,PAYLOAD,2023-08-06 19:25:17,15.08829672,0.0001076,53.218,95.3452,99.8734,260.238,-0.00012085,-2.21e-05,0.0,0 STARLINK-3234,1 50815U 22001N   23218.80923539 -.00002210  00000-0 -12085-3 0  9995,2 50815  53.2180  95.3452 0001076  99.8734 260.2380 15.08829672 88883,6917.912,95.438,540.521,539.033,0.0
50815.0,STARLINK-3234,PAYLOAD,2023-08-07 19:16:04,15.08844011,9.86e-05,53.2177,90.8851,95.6992,264.4113,-4.8495e-05,-1.06e-05,0.0,0 STARLINK-3234,1 50815U 22001N   23219.80282887 -.00001060  00000-0 -48495-4 0  9997,2 50815  53.2177  90.8851 0000986  95.6992 264.4113 15.08844011 89033,6917.868,95.437,540.415,539.051,0.0
50815.0,STARLINK-3234,PAYLOAD,2023-08-08 01:37:36,15.08856802,0.0001005,53.218,89.6956,92.2129,267.8979,1.2086e-05,-9.5e-07,0.0,0 STARLINK-3234,1 50815U 22001N   23220.06777930 -.00000095  00000-0  12086-4 0  9998,2 50815  53.2180  89.6956 0001005  92.2129 267.8979 15.08856802 89079,6917.829,95.436,540.389,538.999,0.0
50815.0,STARLINK-3234,PAYLOAD,2023-08-08 07:59:09,15.08848343,0.0001032,53.2174,88.5072,98.9888,261.1221,0.00014209,1.975e-05,0.0,0 STARLINK-3234,1 50815U 22001N   23220.33274509  .00001975  00000-0  14209-3 0  9997,2 50815  53.2174  88.5072 0001032  98.9888 261.1221 15.08848343 89117,6917.855,95.437,540.434,539.006,0.0
50815.0,STARLINK-3234,PAYLOAD,2023-08-08 15:56:05,15.08840828,0.0001119,53.218,87.0217,106.782,253.3295,0.00035346,5.342e-05,0.0,0 STARLINK-3234,1 50815U 22001N   23220.66395176  .00005342  00000-0  35346-3 0  9994,2 50815  53.2180  87.0217 0001119 106.7820 253.3295 15.08840828 89168,6917.878,95.438,540.517,538.969,0.0
50815.0,STARLINK-3234,PAYLOAD,2023-08-09 01:28:23,15.0885785,0.0001076,53.2174,85.2368,103.9405,256.1707,0.0004914,7.545e-05,0.0,0 STARLINK-3234,1 50815U 22001N   23221.06138536  .00007545  00000-0  49140-3 0  9998,2 50815  53.2174  85.2368 0001076 103.9405 256.1707 15.08857850 89227,6917.826,95.436,540.435,538.946,0.0
50815.0,STARLINK-3234,PAYLOAD,2023-08-09 07:49:56,15.08847518,0.0001073,53.2169,84.0466,83.9964,276.115,6.1874e-05,6.97e-06,0.0,0 STARLINK-3234,1 50815U 22001N   23221.32634628  .00000697  00000-0  61874-4 0  9990,2 50815  53.2169  84.0466 0001073  83.9964 276.1150 15.08847518 89269,6917.857,95.437,540.465,538.98,0.0
50815.0,STARLINK-3234,PAYLOAD,2023-08-09 23:43:48,15.08838378,0.000142,53.2176,81.0724,77.0419,283.0732,-3.9113e-05,-9.1e-06,0.0,0 STARLINK-3234,1 50815U 22001N   23221.98875061 -.00000910  00000-0 -39113-4 0  9991,2 50815  53.2176  81.0724 0001420  77.0419 283.0732 15.08838378 89364,6917.885,95.438,540.733,538.768,0.0
